{ "Locations" : [{
   "PlaceId":1,
   "PlaceName":"Enformatik",
   "Longitude":37.060037,
   "Latitude":35.355380
},
{
   "PlaceId":1,
   "PlaceName":"Kütüphane",
   "Longitude":37.060258,
   "Latitude":35.355011
},
{
   "PlaceId":1,
   "PlaceName":"R1 Derslikleri",
   "Longitude":37.061016,
   "Latitude":35.354716
},
{
   "PlaceId":1,
   "PlaceName":"R2 Derslikleri",
   "Longitude":37.061032,
   "Latitude":35.355417
},
{
    "PlaceId":1,
   "PlaceName":"Yazılım 2",
   "Longitude":37.060947,
   "Latitude":35.350854
 },
 {
   "PlaceId":1,
   "PlaceName":"abcdef",
   "Longitude":1.2,
   "Latitude":1.3
 },{
   "PlaceId":1,
   "PlaceName":"abcdef",
   "Longitude":1.2,
   "Latitude":1.3
},
{
    "PlaceId":1,
   "PlaceName":"abcdef",
   "Longitude":1.2,
   "Latitude":1.3},
{
   "PlaceId":1,
   "PlaceName":"abcdef",
   "Longitude":1.2,
   "Latitude":1.3
},
{
   "PlaceId":1,
   "PlaceName":"abcdef",
   "Longitude":1.2,
   "Latitude":1.3
},
{
    "PlaceId":1,
   "PlaceName":"abcdef",
   "Longitude":1.2,
   "Latitude":1.3
 },
 {
   "PlaceId":1,
   "PlaceName":"abcdef",
   "Longitude":1.2,
   "Latitude":1.3
 },{
   "PlaceId":1,
   "PlaceName":"abcdef",
   "Longitude":1.2,
   "Latitude":1.3
},
{
    "PlaceId":1,
   "PlaceName":"abcdef",
   "Longitude":1.2,
   "Latitude":1.3},
{
   "PlaceId":1,
   "PlaceName":"abcdef",
   "Longitude":1.2,
   "Latitude":1.3
},
{
   "PlaceId":1,
   "PlaceName":"abcdef",
   "Longitude":1.2,
   "Latitude":1.3
},
{
    "PlaceId":1,
   "PlaceName":"abcdef",
   "Longitude":1.2,
   "Latitude":1.3
 },
 {
   "PlaceId":1,
   "PlaceName":"abcdef",
   "Longitude":1.2,
   "Latitude":1.3
 },
{
   "PlaceId":1,
   "PlaceName":"abcdef",
   "Longitude":1.2,
   "Latitude":1.3
},
{
    "PlaceId":1,
   "PlaceName":"abcdef",
   "Longitude":1.2,
   "Latitude":1.3},
{
   "PlaceId":1,
   "PlaceName":"abcdef",
   "Longitude":1.2,
   "Latitude":1.3
},
{
   "PlaceId":1,
   "PlaceName":"abcdef",
   "Longitude":1.2,
   "Latitude":1.3
},
{
    "PlaceId":1,
   "PlaceName":"abcdef",
   "Longitude":1.2,
   "Latitude":1.3
 }]}
